OBJECT_NAME,OBJECT_ID,EPOCH,MEAN_MOTION,ECCENTRICITY,INCLINATION,RA_OF_ASC_NODE,ARG_OF_PERICENTER,MEAN_ANOMALY,EPHEMERIS_TYPE,CLASSIFICATION_TYPE,NORAD_CAT_ID,ELEMENT_SET_NO,REV_AT_EPOCH,BSTAR,MEAN_MOTION_DOT,MEAN_MOTION_DDOT
STARLINK-35039,2025-194T,2026-06-25T02:58:27.931296,15.05666617,.00025794,97.3158,29.0174,88.9762,271.1761,0,U,65451,999,4581,.21320692E-3,.3022E-4,0
STARLINK-35084,2025-194U,2026-06-25T03:18:25.900992,15.05646336,.00024888,97.3185,29.0013,91.9026,268.2487,0,U,65452,999,4581,.64250918E-3,.9225E-4,0
STARLINK-34988,2025-194V,2026-06-25T03:44:00.894624,15.04842017,.00016895,97.4483,30.3149,68.7401,291.4006,0,U,65453,999,4586,.24417729E-3,.3391E-4,0
STARLINK-35059,2025-194W,2026-06-25T03:49:07.629312,15.04843618,.00017591,97.4464,29.8380,74.1660,285.9761,0,U,65454,999,4583,.25927685E-3,.3605E-4,0
STARLINK-34728,2025-194X,2026-06-25T03:34:21.729504,15.05669916,.00022834,97.3166,28.9866,55.2752,304.8691,0,U,65455,999,4581,.65115068E-3,.9356E-4,0
STARLINK-35005,2025-194Y,2026-06-25T03:54:18.614880,15.05648428,.00024299,97.3148,29.1229,86.2776,273.8729,0,U,65456,999,4582,.88678632E-3,.12761E-3,0
STARLINK-35076,2025-194Z,2026-06-25T03:26:22.342560,15.05677223,.00016852,97.3162,28.9913,117.3954,242.7445,0,U,65457,999,4581,.59710872E-3,.8575E-4,0
STARLINK-34784,2025-195A,2026-06-25T03:02:26.926656,15.31729922,.00012876,53.1576,118.3839,95.8554,264.2594,0,U,65458,999,4645,.68009683E-3,.20818E-3,0
STARLINK-34867,2025-195B,2026-06-25T03:47:48.037632,15.34395227,.00012346,53.1571,117.8657,65.0405,295.0726,0,U,65459,999,4646,.24831407E-3,.8021E-4,0
STARLINK-34850,2025-195C,2026-06-25T03:41:43.922976,15.34419780,.00010691,53.1577,117.8395,98.4876,261.6248,0,U,65460,999,4646,.8288947E-3,.27751E-3,0
STARLINK-35159,2025-195D,2026-06-25T02:38:14.437248,15.34422821,.00018636,53.1583,118.2776,71.4529,288.6676,0,U,65461,999,4645,.10340849E-2,.3475E-3,0
STARLINK-35180,2025-195E,2026-06-25T03:50:49.393824,15.34406871,.0001241,53.1594,117.8823,90.9375,269.1770,0,U,65462,999,4646,.80073838E-3,.26781E-3,0
STARLINK-35111,2025-195F,2026-06-25T03:29:20.063904,15.31730254,.00012455,53.1569,118.4916,110.7263,249.3872,0,U,65463,999,4645,.70141556E-3,.21484E-3,0
STARLINK-35107,2025-195G,2026-06-25T02:35:36.021120,15.31750232,.00011866,53.1581,118.2628,78.8747,281.2387,0,U,65464,999,4645,.14512564E-2,.45012E-3,0
STARLINK-35169,2025-195H,2026-06-25T02:56:24.768960,15.34417959,.00011761,53.1576,118.3550,67.6978,292.4149,0,U,65465,999,4645,.10412714E-2,.34989E-3,0
STARLINK-35027,2025-195J,2026-06-25T02:35:12.198912,15.34413588,.0001363,53.1596,118.2634,75.1810,284.9343,0,U,65466,999,4645,.8742347E-3,.29289E-3,0
STARLINK-34816,2025-195K,2026-06-25T03:53:24.099936,15.30206059,.00013632,53.1591,119.3032,95.5080,264.6076,0,U,65467,999,4644,.80382495E-3,.23528E-3,0
STARLINK-35033,2025-195L,2026-06-25T02:42:17.242848,15.31721777,.00012901,53.1575,118.2867,84.1980,275.9168,0,U,65468,999,4645,.11473177E-2,.35431E-3,0
STARLINK-34924,2025-195M,2026-06-25T03:44:45.791520,15.34441576,.00013448,53.1584,117.8533,100.6484,259.4670,0,U,65469,999,4646,.78628156E-3,.26318E-3,0
STARLINK-34829,2025-195N,2026-06-25T01:35:12.839712,15.31710727,.00013365,53.1573,118.7098,96.7737,263.3417,0,U,65470,999,4644,.47407956E-3,.14379E-3,0
STARLINK-34888,2025-195P,2026-06-25T07:34:46.096320,15.34422073,.00012182,53.1581,117.4223,78.5626,281.5514,0,U,65471,999,4648,.10150484E-2,.34099E-3,0
STARLINK-34799,2025-195Q,2026-06-25T03:32:38.491008,15.34413485,.0001318,53.1575,117.8025,95.3862,264.7291,0,U,65472,999,4644,.83989782E-3,.2812E-3,0
STARLINK-34762,2025-195R,2026-06-25T01:52:47.291232,15.34410440,.00013001,53.1574,118.0777,98.4772,261.6378,0,U,65473,999,4643,.93772078E-3,.3145E-3,0
STARLINK-34998,2025-195S,2026-06-25T02:57:10.212768,15.30192302,.000119,53.1569,119.0583,59.3222,300.7896,0,U,65474,999,4642,.12636514E-2,.37245E-3,0
STARLINK-34832,2025-195T,2026-06-25T03:20:31.303680,15.34413544,.00011976,53.1560,117.7458,94.7216,265.3923,0,U,65475,999,4644,.9014546E-3,.30217E-3,0
STARLINK-35098,2025-195U,2026-06-25T02:28:50.672064,15.31725937,.00011779,53.1580,118.2277,90.2375,269.8762,0,U,65476,999,4643,.12195975E-2,.37703E-3,0
STARLINK-35071,2025-195V,2026-06-25T02:47:19.488192,15.34419501,.00012092,53.1578,118.3092,87.0619,273.0522,0,U,65477,999,4643,.89025704E-3,.29841E-3,0
STARLINK-35093,2025-195W,2026-06-25T03:15:53.542368,15.31723904,.0001212,53.1567,118.4299,84.1210,275.9929,0,U,65478,999,4643,.88263276E-3,.27144E-3,0
STARLINK-35096,2025-195X,2026-06-25T03:22:36.881760,15.31719140,.0001597,53.1572,118.4593,111.6318,248.4853,0,U,65479,999,4643,.97422789E-3,.30006E-3,0
STARLINK-35040,2025-195Y,2026-06-25T03:35:40.208352,15.34406641,.00010747,53.1574,117.7855,97.8108,262.3017,0,U,65480,999,4644,.97208891E-3,.32617E-3,0
STARLINK-35042,2025-195Z,2026-06-25T03:53:50.930592,15.34410366,.00012547,53.1583,117.8839,103.1086,257.0057,0,U,65481,999,4644,.84136784E-3,.28167E-3,0
STARLINK-35038,2025-195AA,2026-06-25T03:29:36.559392,15.34416735,.00014355,53.1566,117.7569,92.3332,267.7835,0,U,65482,999,4644,.92529626E-3,.31033E-3,0
STARLINK-35037,2025-195AB,2026-06-25T02:41:15.556704,15.34422728,.00010538,53.1591,118.2603,83.7899,276.3224,0,U,65483,999,4643,.96220669E-3,.32297E-3,0
STARLINK-35089,2025-195AC,2026-06-25T01:49:45.161760,15.34407626,.00010922,53.1560,118.0349,91.8157,268.2971,0,U,65484,999,4643,.90922941E-3,.30476E-3,0
STARLINK-35143,2025-195AD,2026-06-25T03:36:03.392064,15.31724593,.00013707,53.1572,118.4977,98.7645,261.3512,0,U,65485,999,4643,.12044876E-2,.37227E-3,0
SHIYAN-29,2025-196A,2026-06-24T15:45:30.028320,1.00283963,.0012596,28.8296,18.4412,175.5410,50.0372,0,U,65486,999,295,0,-.281E-5,0
2025-197A,2025-197A,2026-06-24T22:41:58.620768,15.10481690,.00138186,97.4133,357.8553,8.2789,351.8666,0,U,65488,999,4418,.16357552E-3,.2636E-4,0
2025-197B,2025-197B,2026-06-25T07:23:01.582080,15.19530947,.00131564,97.4101,2.4536,344.8248,15.2590,0,U,65489,999,4451,.19918254E-3,.4173E-4,0
2025-197C,2025-197C,2026-06-25T05:45:14.941728,15.24565889,.00139249,97.4103,3.1570,348.3256,11.7657,0,U,65490,999,4454,.17702877E-3,.4299E-4,0
STARLINK-35226,2025-198A,2026-06-25T04:06:02.280672,15.34405161,.00011699,53.1561,129.7945,90.6778,269.4358,0,U,65492,999,4510,.93618585E-3,.31392E-3,0
STARLINK-35242,2025-198B,2026-06-25T03:47:51.430560,15.34412019,.00011844,53.1565,129.7217,96.9168,263.1969,0,U,65493,999,4510,.87299044E-3,.29245E-3,0
STARLINK-35223,2025-198C,2026-06-25T04:36:20.267136,15.34397928,.00015682,53.1592,129.9262,87.1932,272.9250,0,U,65494,999,4510,.52762888E-3,.17491E-3,0
STARLINK-34446,2025-198D,2026-06-25T04:06:17.976960,15.30210379,.00010729,53.1556,131.9215,89.5534,270.5589,0,U,65495,999,4507,.54174158E-3,.15725E-3,0
STARLINK-35212,2025-198E,2026-06-25T06:00:02.000160,15.34354584,.00012613,53.1588,131.3266,73.1303,117.6514,0,U,65496,999,587,.14148194E-2,.47661E-3,0
STARLINK-34455,2025-198F,2026-06-25T04:27:14.860224,15.34407850,.00015378,53.1577,129.8874,80.5334,279.5842,0,U,65497,999,4510,.45312642E-3,.14968E-3,0
STARLINK-35203,2025-198G,2026-06-25T03:42:37.694016,15.34418722,.00011184,53.1577,131.8218,75.7774,284.3353,0,U,65498,999,4507,.81986248E-3,.27442E-3,0
STARLINK-35166,2025-198H,2026-06-25T03:39:36.019872,15.34414330,.0001424,53.1596,131.8064,87.8701,272.2465,0,U,65499,999,4507,.12968272E-2,.43715E-3,0
STARLINK-35207,2025-198J,2026-06-25T06:00:02.000160,15.34355937,.0001615,53.1599,131.2601,85.9729,139.6694,0,U,65500,999,582,.14114288E-2,.47547E-3,0
STARLINK-35140,2025-198K,2026-06-25T02:26:10.923648,15.34402600,.00012365,53.1564,130.0734,94.8183,265.2961,0,U,65501,999,4509,.70734774E-3,.236E-3,0
STARLINK-35114,2025-198L,2026-06-25T03:20:43.932768,15.34380574,.0001343,53.1584,130.3106,95.7922,264.3233,0,U,65502,999,4509,.87479344E-3,.29277E-3,0
STARLINK-35126,2025-198M,2026-06-25T06:56:17.808000,15.34408020,.00008772,53.1597,131.2374,100.5054,259.6048,0,U,65503,999,4509,.85162246E-3,.28514E-3,0
STARLINK-35182,2025-198N,2026-06-25T03:26:46.742784,15.34416349,.00012532,53.1583,130.3330,86.3684,273.7461,0,U,65504,999,4509,.80275149E-3,.26857E-3,0
STARLINK-35072,2025-198P,2026-06-25T02:38:18.047904,15.34412444,.00011651,53.1564,130.1205,90.3259,269.7877,0,U,65505,999,4509,.86803582E-3,.29077E-3,0
STARLINK-35184,2025-198Q,2026-06-25T04:33:18.386496,15.34419064,.00013027,53.1586,129.9132,83.6396,276.4755,0,U,65506,999,4510,.5331269E-3,.1769E-3,0
STARLINK-35163,2025-198R,2026-06-25T03:51:43.012800,15.34411581,.00015121,53.1586,131.8588,63.3489,296.7668,0,U,65507,999,4507,.83955344E-3,.28106E-3,0
STARLINK-35119,2025-198S,2026-06-25T03:35:51.969984,15.34407452,.00016049,53.1579,130.3749,116.8008,243.3159,0,U,65508,999,4509,.1000623E-2,.33591E-3,0
STARLINK-35168,2025-198T,2026-06-25T03:11:37.673088,15.34411034,.0001326,53.1582,130.2677,94.5493,265.5661,0,U,65509,999,4509,.91664731E-3,.30732E-3,0
STARLINK-35122,2025-198U,2026-06-25T04:09:04.174272,15.34403214,.00013256,53.1567,129.8035,96.0355,264.0799,0,U,65510,999,4510,.90130125E-3,.30202E-3,0
STARLINK-35124,2025-198V,2026-06-25T03:50:53.322432,15.34407272,.00011103,53.1569,129.7262,81.7927,278.3202,0,U,65511,999,4509,.88115996E-3,.29519E-3,0
STARLINK-35149,2025-198W,2026-06-25T04:42:23.600736,15.34404988,.00012504,53.1577,129.9472,97.3600,262.7544,0,U,65512,999,4510,.69715233E-3,.23255E-3,0
STARLINK-35019,2025-198X,2026-06-25T03:17:41.553600,15.34405266,.00014289,53.1586,130.2927,88.7684,271.3482,0,U,65513,999,4509,.90603156E-3,.30365E-3,0
STARLINK-35026,2025-198Y,2026-06-25T03:30:30.492864,15.34421194,.00013011,53.1592,131.7641,78.9068,281.2080,0,U,65514,999,4507,.82223812E-3,.27525E-3,0
STARLINK-35241,2025-198Z,2026-06-25T02:29:12.778368,15.30197691,.00013123,53.1559,132.2043,76.9202,283.1945,0,U,65515,999,4506,.87629198E-3,.25682E-3,0
STARLINK-35216,2025-198AA,2026-06-25T06:00:02.000160,15.34222487,.00023377,53.1579,131.5058,115.2808,342.4947,0,U,65516,999,587,.37039265E-2,.126177E-2,0
